{
    "links": {
        "self": "http://www.neowsapp.com/rest/v1/neo/3795096?api_key=iIulBulltgU6a56xZRHN4H3l9WmuAYTsLGpBGhQ2"
    },
    "id": "3795096",
    "neo_reference_id": "3795096",
    "name": "(2017 YU5)",
    "designation": "2017 YU5",
    "nasa_jpl_url": "http://ssd.jpl.nasa.gov/sbdb.cgi?sstr=3795096",
    "absolute_magnitude_h": 24.1,
    "estimated_diameter": {
        "kilometers": {
            "estimated_diameter_min": 0.040230458,
            "estimated_diameter_max": 0.0899580388
        },
        "meters": {
            "estimated_diameter_min": 40.2304579834,
            "estimated_diameter_max": 89.9580388169
        },
        "miles": {
            "estimated_diameter_min": 0.0249980399,
            "estimated_diameter_max": 0.0558973165
        },
        "feet": {
            "estimated_diameter_min": 131.9896957704,
            "estimated_diameter_max": 295.1379320721
        }
    },
    "is_potentially_hazardous_asteroid": false,
    "close_approach_data": [
        {
            "close_approach_date": "2018-01-12",
            "close_approach_date_full": "2018-Jan-12 10:45",
            "epoch_date_close_approach": 1515753900000,
            "relative_velocity": {
                "kilometers_per_second": "11.6641117893",
                "kilometers_per_hour": "41990.8024413504",
                "miles_per_hour": "26091.4516614046"
            },
            "miss_distance": {
                "astronomical": "0.110687804",
                "lunar": "43.057555756",
                "kilometers": "16558659.71337748",
                "miles": "10289074.035190024"
            },
            "orbiting_body": "Earth"
        },
        {
            "close_approach_date": "2020-12-24",
            "close_approach_date_full": "2020-Dec-24 22:32",
            "epoch_date_close_approach": 1608849120000,
            "relative_velocity": {
                "kilometers_per_second": "19.7525874522",
                "kilometers_per_hour": "71109.3148280348",
                "miles_per_hour": "44184.5628718975"
            },
            "miss_distance": {
                "astronomical": "0.3697992688",
                "lunar": "143.8519155632",
                "kilometers": "55321182.940037456",
                "miles": "34374989.0895146528"
            },
            "orbiting_body": "Earth"
        }
    ],
    "orbital_data": {
        "orbit_id": "2",
        "orbit_determination_date": "2018-01-18 06:53:41",
        "first_observation_date": "2017-12-23",
        "last_observation_date": "2018-01-17",
        "data_arc_in_days": 25,
        "observations_used": 16,
        "orbit_uncertainty": "8",
        "minimum_orbit_intersection": ".0161661",
        "jupiter_tisserand_invariant": "3.588",
        "epoch_osculation": "2458112.5",
        "eccentricity": ".5320628171882971",
        "semi_major_axis": "2.062964008077476",
        "inclination": "1.121178851462726",
        "ascending_node_longitude": "75.16107407714118",
        "orbital_period": "1082.270705831495",
        "perihelion_distance": ".9653375661817135",
        "perihelion_argument": "76.82547177267999",
        "aphelion_distance": "3.16059044997324",
        "perihelion_time": "2458158.770363225936",
        "mean_anomaly": "344.6089054507492",
        "mean_motion": ".3326339686182455",
        "equinox": "J2000",
        "orbit_class": {
            "orbit_class_type": "APO",
            "orbit_class_description": "Near-Earth asteroid orbits which cross the Earth’s orbit similar to that of 1862 Apollo",
            "orbit_class_range": "a (semi-major axis) > 1.0 AU; q (perihelion) < 1.017 AU"
        }
    },
    "is_sentry_object": false
}